ONEWEB-0161             
1 48053U 21025M   26021.45090132  .00000125  00000+0  30793-3 0  9997
2 48053  87.9011 349.3850 0001803  88.1906 271.9430 13.13469694234241
ONEWEB-0158             
1 48054U 21025N   26021.33409950 -.00000097  00000+0 -29927-3 0  9994
2 48054  87.9013 349.3948 0001655  72.6639 287.4671 13.13470153234351
ONEWEB-0157             
1 48055U 21025P   26021.43567046  .00000369  00000+0  97563-3 0  9998
2 48055  87.9016 349.3801 0001705  93.5666 266.5658 13.13470600234306
ONEWEB-0162             
1 48056U 21025Q   26021.41182551  .00000065  00000+0  14253-3 0  9999
2 48056  87.9014 349.3882 0001924  84.5940 275.5409 13.13471656234274
ONEWEB-0155             
1 48057U 21025R   26021.34254668  .00000269  00000+0  70217-3 0  9999
2 48057  87.9010 349.4052 0001640  86.5524 273.5793 13.13471806234402
ONEWEB-0149             
1 48058U 21025S   26021.44075139  .00000332  00000+0  87286-3 0  9990
2 48058  87.9014 349.3799 0001991  84.1004 276.0352 13.13469579234223
ONEWEB-0148             
1 48059U 21025T   26021.32732845 -.00000304  00000+0 -86696-3 0  9997
2 48059  87.9005 349.4194 0002294  91.4032 268.7360 13.13469578234331
ONEWEB-0160             
1 48060U 21025U   26021.42043266  .00000334  00000+0  88010-3 0  9995
2 48060  87.9007 349.3983 0001981  59.7319 300.4006 13.13471099234294
ONEWEB-0163             
1 48061U 21025V   26021.40518544 -.00000135  00000+0 -40387-3 0  9996
2 48061  87.9013 349.3904 0001727  93.0480 267.0847 13.13472018234410
ONEWEB-0159             
1 48062U 21025W   26021.39673146 -.00000171  00000+0 -50435-3 0  9990
2 48062  87.9013 349.3767 0001833  89.4992 270.6348 13.13470794234339
ONEWEB-0164             
1 48063U 21025X   26021.45426778 -.00000013  00000+0 -69949-4 0  9991
2 48063  87.9020 349.3716 0001769  77.7604 282.3724 13.13471619234324
ONEWEB-0167             
1 48064U 21025Y   26021.40603412 -.00000040  00000+0 -14519-3 0  9991
2 48064  87.9005 349.4052 0001160  97.1578 262.9683 13.13472057234306
ONEWEB-0166             
1 48065U 21025Z   26021.35272151  .00000407  00000+0  10799-2 0  9998
2 48065  87.9016 349.3752 0001928  85.6804 274.4545 13.13470380234370
ONEWEB-0151             
1 48066U 21025AA  26021.43059112  .00000443  00000+0  11776-2 0  9994
2 48066  87.9017 349.3868 0001644  82.5140 277.6176 13.13470716234327
ONEWEB-0170             
1 48067U 21025AB  26021.43904564  .00000370  00000+0  97914-3 0  9993
2 48067  87.9012 349.3881 0001510  67.6240 292.5049 13.13467787234289
ONEWEB-0168             
1 48068U 21025AC  26021.34764280  .00000381  00000+0  10072-2 0  9994
2 48068  87.9017 349.3940 0001767  88.7613 271.3719 13.13471012234288
ONEWEB-0173             
1 48069U 21025AD  26021.33917308  .00000215  00000+0  55455-3 0  9996
2 48069  87.9017 349.4030 0001528  95.1333 264.9971 13.13471433234528
