[{"OBJECT_NAME":"ONEWEB-0161","OBJECT_ID":"2021-025M","EPOCH":"2026-01-21T10:49:17.874048","MEAN_MOTION":13.13469694,"ECCENTRICITY":0.0001803,"INCLINATION":87.9011,"RA_OF_ASC_NODE":349.385,"ARG_OF_PERICENTER":88.1906,"MEAN_ANOMALY":271.943,"EPHEMERIS_TYPE":0,"CLASSIFICATION_TYPE":"U","NORAD_CAT_ID":48053,"ELEMENT_SET_NO":999,"REV_AT_EPOCH":23424,"BSTAR":0.00030793,"MEAN_MOTION_DOT":1.25e-6,"MEAN_MOTION_DDOT":0},{"OBJECT_NAME":"ONEWEB-0158","OBJECT_ID":"2021-025N","EPOCH":"2026-01-21T08:01:06.196800","MEAN_MOTION":13.13470153,"ECCENTRICITY":0.0001655,"INCLINATION":87.9013,"RA_OF_ASC_NODE":349.3948,"ARG_OF_PERICENTER":72.6639,"MEAN_ANOMALY":287.4671,"EPHEMERIS_TYPE":0,"CLASSIFICATION_TYPE":"U","NORAD_CAT_ID":48054,"ELEMENT_SET_NO":999,"REV_AT_EPOCH":23435,"BSTAR":-0.00029927,"MEAN_MOTION_DOT":-9.7e-7,"MEAN_MOTION_DDOT":0},{"OBJECT_NAME":"ONEWEB-0157","OBJECT_ID":"2021-025P","EPOCH":"2026-01-21T10:27:21.927744","MEAN_MOTION":13.134706,"ECCENTRICITY":0.0001705,"INCLINATION":87.9016,"RA_OF_ASC_NODE":349.3801,"ARG_OF_PERICENTER":93.5666,"MEAN_ANOMALY":266.5658,"EPHEMERIS_TYPE":0,"CLASSIFICATION_TYPE":"U","NORAD_CAT_ID":48055,"ELEMENT_SET_NO":999,"REV_AT_EPOCH":23430,"BSTAR":0.00097563,"MEAN_MOTION_DOT":3.69e-6,"MEAN_MOTION_DDOT":0},{"OBJECT_NAME":"ONEWEB-0162","OBJECT_ID":"2021-025Q","EPOCH":"2026-01-21T09:53:01.724064","MEAN_MOTION":13.13471656,"ECCENTRICITY":0.0001924,"INCLINATION":87.9014,"RA_OF_ASC_NODE":349.3882,"ARG_OF_PERICENTER":84.594,"MEAN_ANOMALY":275.5409,"EPHEMERIS_TYPE":0,"CLASSIFICATION_TYPE":"U","NORAD_CAT_ID":48056,"ELEMENT_SET_NO":999,"REV_AT_EPOCH":23427,"BSTAR":0.00014253,"MEAN_MOTION_DOT":6.5e-7,"MEAN_MOTION_DDOT":0},{"OBJECT_NAME":"ONEWEB-0155","OBJECT_ID":"2021-025R","EPOCH":"2026-01-21T08:13:16.033152","MEAN_MOTION":13.13471806,"ECCENTRICITY":0.000164,"INCLINATION":87.901,"RA_OF_ASC_NODE":349.4052,"ARG_OF_PERICENTER":86.5524,"MEAN_ANOMALY":273.5793,"EPHEMERIS_TYPE":0,"CLASSIFICATION_TYPE":"U","NORAD_CAT_ID":48057,"ELEMENT_SET_NO":999,"REV_AT_EPOCH":23440,"BSTAR":0.00070217,"MEAN_MOTION_DOT":2.69e-6,"MEAN_MOTION_DDOT":0},{"OBJECT_NAME":"ONEWEB-0149","OBJECT_ID":"2021-025S","EPOCH":"2026-01-21T10:34:40.920096","MEAN_MOTION":13.13469579,"ECCENTRICITY":0.0001991,"INCLINATION":87.9014,"RA_OF_ASC_NODE":349.3799,"ARG_OF_PERICENTER":84.1004,"MEAN_ANOMALY":276.0352,"EPHEMERIS_TYPE":0,"CLASSIFICATION_TYPE":"U","NORAD_CAT_ID":48058,"ELEMENT_SET_NO":999,"REV_AT_EPOCH":23422,"BSTAR":0.00087286,"MEAN_MOTION_DOT":3.32e-6,"MEAN_MOTION_DDOT":0},{"OBJECT_NAME":"ONEWEB-0148","OBJECT_ID":"2021-025T","EPOCH":"2026-01-21T07:51:21.178080","MEAN_MOTION":13.13469578,"ECCENTRICITY":0.0002294,"INCLINATION":87.9005,"RA_OF_ASC_NODE":349.4194,"ARG_OF_PERICENTER":91.4032,"MEAN_ANOMALY":268.736,"EPHEMERIS_TYPE":0,"CLASSIFICATION_TYPE":"U","NORAD_CAT_ID":48059,"ELEMENT_SET_NO":999,"REV_AT_EPOCH":23433,"BSTAR":-0.00086696,"MEAN_MOTION_DOT":-3.04e-6,"MEAN_MOTION_DDOT":0},{"OBJECT_NAME":"ONEWEB-0160","OBJECT_ID":"2021-025U","EPOCH":"2026-01-21T10:05:25.381824","MEAN_MOTION":13.13471099,"ECCENTRICITY":0.0001981,"INCLINATION":87.9007,"RA_OF_ASC_NODE":349.3983,"ARG_OF_PERICENTER":59.7319,"MEAN_ANOMALY":300.4006,"EPHEMERIS_TYPE":0,"CLASSIFICATION_TYPE":"U","NORAD_CAT_ID":48060,"ELEMENT_SET_NO":999,"REV_AT_EPOCH":23429,"BSTAR":0.0008801,"MEAN_MOTION_DOT":3.34e-6,"MEAN_MOTION_DDOT":0},{"OBJECT_NAME":"ONEWEB-0163","OBJECT_ID":"2021-025V","EPOCH":"2026-01-21T09:43:28.022016","MEAN_MOTION":13.13472018,"ECCENTRICITY":0.0001727,"INCLINATION":87.9013,"RA_OF_ASC_NODE":349.3904,"ARG_OF_PERICENTER":93.048,"MEAN_ANOMALY":267.0847,"EPHEMERIS_TYPE":0,"CLASSIFICATION_TYPE":"U","NORAD_CAT_ID":48061,"ELEMENT_SET_NO":999,"REV_AT_EPOCH":23441,"BSTAR":-0.00040387,"MEAN_MOTION_DOT":-1.35e-6,"MEAN_MOTION_DDOT":0},{"OBJECT_NAME":"ONEWEB-0159","OBJECT_ID":"2021-025W","EPOCH":"2026-01-21T09:31:17.598144","MEAN_MOTION":13.13470794,"ECCENTRICITY":0.0001833,"INCLINATION":87.9013,"RA_OF_ASC_NODE":349.3767,"ARG_OF_PERICENTER":89.4992,"MEAN_ANOMALY":270.6348,"EPHEMERIS_TYPE":0,"CLASSIFICATION_TYPE":"U","NORAD_CAT_ID":48062,"ELEMENT_SET_NO":999,"REV_AT_EPOCH":23433,"BSTAR":-0.00050435,"MEAN_MOTION_DOT":-1.71e-6,"MEAN_MOTION_DDOT":0},{"OBJECT_NAME":"ONEWEB-0164","OBJECT_ID":"2021-025X","EPOCH":"2026-01-21T10:54:08.736192","MEAN_MOTION":13.13471619,"ECCENTRICITY":0.0001769,"INCLINATION":87.902,"RA_OF_ASC_NODE":349.3716,"ARG_OF_PERICENTER":77.7604,"MEAN_ANOMALY":282.3724,"EPHEMERIS_TYPE":0,"CLASSIFICATION_TYPE":"U","NORAD_CAT_ID":48063,"ELEMENT_SET_NO":999,"REV_AT_EPOCH":23432,"BSTAR":-6.9949e-5,"MEAN_MOTION_DOT":-1.3e-7,"MEAN_MOTION_DDOT":0},{"OBJECT_NAME":"ONEWEB-0167","OBJECT_ID":"2021-025Y","EPOCH":"2026-01-21T09:44:41.347968","MEAN_MOTION":13.13472057,"ECCENTRICITY":0.000116,"INCLINATION":87.9005,"RA_OF_ASC_NODE":349.4052,"ARG_OF_PERICENTER":97.1578,"MEAN_ANOMALY":262.9683,"EPHEMERIS_TYPE":0,"CLASSIFICATION_TYPE":"U","NORAD_CAT_ID":48064,"ELEMENT_SET_NO":999,"REV_AT_EPOCH":23430,"BSTAR":-0.00014519,"MEAN_MOTION_DOT":-4.0e-7,"MEAN_MOTION_DDOT":0},{"OBJECT_NAME":"ONEWEB-0166","OBJECT_ID":"2021-025Z","EPOCH":"2026-01-21T08:27:55.138464","MEAN_MOTION":13.1347038,"ECCENTRICITY":0.0001928,"INCLINATION":87.9016,"RA_OF_ASC_NODE":349.3752,"ARG_OF_PERICENTER":85.6804,"MEAN_ANOMALY":274.4545,"EPHEMERIS_TYPE":0,"CLASSIFICATION_TYPE":"U","NORAD_CAT_ID":48065,"ELEMENT_SET_NO":999,"REV_AT_EPOCH":23437,"BSTAR":0.0010799,"MEAN_MOTION_DOT":4.07e-6,"MEAN_MOTION_DDOT":0},{"OBJECT_NAME":"ONEWEB-0151","OBJECT_ID":"2021-025AA","EPOCH":"2026-01-21T10:20:03.072768","MEAN_MOTION":13.13470716,"ECCENTRICITY":0.0001644,"INCLINATION":87.9017,"RA_OF_ASC_NODE":349.3868,"ARG_OF_PERICENTER":82.514,"MEAN_ANOMALY":277.6176,"EPHEMERIS_TYPE":0,"CLASSIFICATION_TYPE":"U","NORAD_CAT_ID":48066,"ELEMENT_SET_NO":999,"REV_AT_EPOCH":23432,"BSTAR":0.0011776,"MEAN_MOTION_DOT":4.43e-6,"MEAN_MOTION_DDOT":0},{"OBJECT_NAME":"ONEWEB-0170","OBJECT_ID":"2021-025AB","EPOCH":"2026-01-21T10:32:13.543296","MEAN_MOTION":13.13467787,"ECCENTRICITY":0.000151,"INCLINATION":87.9012,"RA_OF_ASC_NODE":349.3881,"ARG_OF_PERICENTER":67.624,"MEAN_ANOMALY":292.5049,"EPHEMERIS_TYPE":0,"CLASSIFICATION_TYPE":"U","NORAD_CAT_ID":48067,"ELEMENT_SET_NO":999,"REV_AT_EPOCH":23428,"BSTAR":0.00097914,"MEAN_MOTION_DOT":3.7e-6,"MEAN_MOTION_DDOT":0},{"OBJECT_NAME":"ONEWEB-0168","OBJECT_ID":"2021-025AC","EPOCH":"2026-01-21T08:20:36.337920","MEAN_MOTION":13.13471012,"ECCENTRICITY":0.0001767,"INCLINATION":87.9017,"RA_OF_ASC_NODE":349.394,"ARG_OF_PERICENTER":88.7613,"MEAN_ANOMALY":271.3719,"EPHEMERIS_TYPE":0,"CLASSIFICATION_TYPE":"U","NORAD_CAT_ID":48068,"ELEMENT_SET_NO":999,"REV_AT_EPOCH":23428,"BSTAR":0.0010072,"MEAN_MOTION_DOT":3.81e-6,"MEAN_MOTION_DDOT":0},{"OBJECT_NAME":"ONEWEB-0173","OBJECT_ID":"2021-025AD","EPOCH":"2026-01-21T08:08:24.554112","MEAN_MOTION":13.13471433,"ECCENTRICITY":0.0001528,"INCLINATION":87.9017,"RA_OF_ASC_NODE":349.403,"ARG_OF_PERICENTER":95.1333,"MEAN_ANOMALY":264.9971,"EPHEMERIS_TYPE":0,"CLASSIFICATION_TYPE":"U","NORAD_CAT_ID":48069,"ELEMENT_SET_NO":999,"REV_AT_EPOCH":23452,"BSTAR":0.00055455,"MEAN_MOTION_DOT":2.15e-6,"MEAN_MOTION_DDOT":0}]
